NORAD_CAT_ID,OBJECT_NAME,OBJECT_TYPE,EPOCH,MEAN_MOTION,ECCENTRICITY,INCLINATION,RA_OF_ASC_NODE,ARG_OF_PERICENTER,MEAN_ANOMALY,BSTAR,MEAN_MOTION_DOT,MEAN_MOTION_DDOT,TLE_LINE0,TLE_LINE1,TLE_LINE2,SEMIMAJOR_AXIS,PERIOD,APOGEE,PERIGEE,DECAYED
53969.0,STARLINK-4468,PAYLOAD,2024-03-12 10:47:39,15.08814333,0.0001786,53.214,248.8223,98.2899,261.8296,0.00076406,0.00011884,0.0,0 STARLINK-4468,1 53969U 22125F   24072.44976595  .00011884  00000-0  76406-3 0  9996,2 53969  53.2140 248.8223 0001786  98.2899 261.8296 15.08814333 79607,6917.959,95.439,541.059,538.588,0.0
53969.0,STARLINK-4468,PAYLOAD,2024-03-13 12:13:53,15.08790053,0.0001063,53.2146,244.0635,56.8544,303.2549,-0.00093985,-0.00015194,0.0,0 STARLINK-4468,1 53969U 22125F   24073.50964196 -.00015194  00000-0 -93985-3 0  9999,2 53969  53.2146 244.0635 0001063  56.8544 303.2549 15.08790053 79764,6918.033,95.441,540.633,539.163,0.0
53969.0,STARLINK-4468,PAYLOAD,2024-03-13 20:10:47,15.08833249,0.0001755,53.2148,242.5753,95.1231,264.9961,0.00021897,3.198e-05,0.0,0 STARLINK-4468,1 53969U 22125F   24073.84082290  .00003198  00000-0  21897-3 0  9994,2 53969  53.2148 242.5753 0001755  95.1231 264.9961 15.08833249 79819,6917.901,95.438,540.98,538.552,0.0
53969.0,STARLINK-4468,PAYLOAD,2024-03-13 21:46:10,15.08836517,0.0001417,53.2115,242.2763,89.3823,270.7331,0.00026787,3.977e-05,0.0,0 STARLINK-4468,1 53969U 22125F   24073.90706127  .00003977  00000-0  26787-3 0  9991,2 53969  53.2115 242.2763 0001417  89.3823 270.7331 15.08836517 79758,6917.891,95.438,540.736,538.776,0.0
53969.0,STARLINK-4468,PAYLOAD,2024-03-14 04:07:41,15.08852586,2.76e-05,53.2123,241.0877,54.4667,305.6351,0.00014654,2.046e-05,0.0,0 STARLINK-4468,1 53969U 22125F   24074.17200986  .00002046  00000-0  14654-3 0  9999,2 53969  53.2123 241.0877 0000276  54.4667 305.6351 15.08852586 79867,6917.842,95.437,539.898,539.516,0.0
53969.0,STARLINK-4468,PAYLOAD,2024-03-14 20:01:33,15.08857213,0.0001534,53.216,238.1148,66.4164,293.6989,0.00066449,0.00010308,0.0,0 STARLINK-4468,1 53969U 22125F   24074.83441351  .00010308  00000-0  66449-3 0  9994,2 53969  53.2160 238.1148 0001534  66.4164 293.6989 15.08857213 79897,6917.828,95.436,540.754,538.632,0.0
53969.0,STARLINK-4468,PAYLOAD,2024-03-15 10:20:02,15.08838571,0.0001018,53.2167,235.4381,76.959,283.1516,0.00055108,8.493e-05,0.0,0 STARLINK-4468,1 53969U 22125F   24075.43058103  .00008493  00000-0  55108-3 0  9992,2 53969  53.2167 235.4381 0001018  76.9590 283.1516 15.08838571 80055,6917.885,95.438,540.454,539.046,0.0
53969.0,STARLINK-4468,PAYLOAD,2024-03-16 10:10:47,15.08852645,6.76e-05,53.2181,230.9768,115.8711,244.235,-2.3777e-05,-6.66e-06,0.0,0 STARLINK-4468,1 53969U 22125F   24076.42416474 -.00000666  00000-0 -23777-4 0  9995,2 53969  53.2181 230.9768 0000676 115.8711 244.2350 15.08852645 80138,6917.842,95.437,540.174,539.239,0.0
53969.0,STARLINK-4468,PAYLOAD,2024-03-16 16:32:20,15.08857574,0.0001237,53.2164,229.7879,98.3355,261.7778,-0.00013237,-2.395e-05,0.0,0 STARLINK-4468,1 53969U 22125F   24076.68912127 -.00002395  00000-0 -13237-3 0  9999,2 53969  53.2164 229.7879 0001237  98.3355 261.7778 15.08857574 80247,6917.827,95.436,540.547,538.836,0.0
53969.0,STARLINK-4468,PAYLOAD,2024-03-17 13:12:21,15.08843476,0.0001401,53.2162,225.9244,84.891,275.2242,8.7748e-05,1.109e-05,0.0,0 STARLINK-4468,1 53969U 22125F   24077.55024610  .00001109  00000-0  87748-4 0  9996,2 53969  53.2162 225.9244 0001401  84.8910 275.2242 15.08843476 80375,6917.87,95.437,540.704,538.766,0.0
53969.0,STARLINK-4468,PAYLOAD,2024-03-17 16:23:07,15.08845795,0.000148,53.2172,225.3304,79.4394,280.6765,8.7922e-05,1.112e-05,0.0,0 STARLINK-4468,1 53969U 22125F   24077.68272436  .00001112  00000-0  87922-4 0  9999,2 53969  53.2172 225.3304 0001480  79.4394 280.6765 15.08845795 80321,6917.863,95.437,540.752,538.704,0.0
53969.0,STARLINK-4468,PAYLOAD,2024-03-18 19:24:40,15.08842607,0.0001556,53.2173,220.276,76.4438,283.6727,8.4993e-05,1.065e-05,0.0,0 STARLINK-4468,1 53969U 22125F   24078.80880516  .00001065  00000-0  84993-4 0  9990,2 53969  53.2173 220.2760 0001556  76.4438 283.6727 15.08842607 80568,6917.872,95.437,540.814,538.661,0.0
53969.0,STARLINK-4468,PAYLOAD,2024-03-19 09:43:09,15.08842183,0.0001595,53.2177,217.5972,81.4109,278.7064,8.634e-05,1.086e-05,0.0,0 STARLINK-4468,1 53969U 22125F   24079.40496562  .00001086  00000-0  86340-4 0  9992,2 53969  53.2177 217.5972 0001595  81.4109 278.7064 15.08842183 80580,6917.874,95.437,540.842,538.635,0.0
53969.0,STARLINK-4468,PAYLOAD,2024-03-19 12:53:54,15.0885207,0.0001462,53.2179,217.0067,94.1968,265.9191,0.00015779,2.225e-05,0.0,0 STARLINK-4468,1 53969U 22125F   24079.53743749  .00002225  00000-0  15779-3 0  9991,2 53969  53.2179 217.0067 0001462  94.1968 265.9191 15.08852070 80674,6917.843,95.437,540.72,538.697,0.0
53969.0,STARLINK-4468,PAYLOAD,2024-03-20 09:33:56,15.08831164,0.0001428,53.2178,213.1378,95.2317,264.8838,4.6965e-05,4.59e-06,0.0,0 STARLINK-4468,1 53969U 22125F   24080.39857337  .00000459  00000-0  46965-4 0  9995,2 53969  53.2178 213.1378 0001428  95.2317 264.8838 15.08831164 80809,6917.907,95.438,540.76,538.785,0.0
53969.0,STARLINK-4468,PAYLOAD,2024-03-20 14:20:05,15.08834022,0.0001746,53.2166,212.2438,98.4329,261.6861,-4.3164e-05,-9.75e-06,0.0,0 STARLINK-4468,1 53969U 22125F   24080.59729056 -.00000975  00000-0 -43164-4 0  9996,2 53969  53.2166 212.2438 0001746  98.4329 261.6861 15.08834022 80766,6917.899,95.438,540.972,538.556,0.0
53969.0,STARLINK-4468,PAYLOAD,2024-03-21 12:35:29,15.08844083,0.0001357,53.2169,208.0819,103.124,256.9904,3.6791e-05,2.98e-06,0.0,0 STARLINK-4468,1 53969U 22125F   24081.52464685  .00000298  00000-0  36791-4 0  9998,2 53969  53.2169 208.0819 0001357 103.1240 256.9904 15.08844083 80975,6917.868,95.437,540.672,538.794,0.0
53969.0,STARLINK-4468,PAYLOAD,2024-03-21 14:10:52,15.08848429,0.0001403,53.2161,207.7849,103.9218,256.193,0.00011906,1.608e-05,0.0,0 STARLINK-4468,1 53969U 22125F   24081.59088509  .00001608  00000-0  11906-3 0  9998,2 53969  53.2161 207.7849 0001403 103.9218 256.1930 15.08848429 80914,6917.855,95.437,540.69,538.749,0.0
53969.0,STARLINK-4468,PAYLOAD,2024-03-21 17:21:38,15.08847216,0.0001723,53.2165,207.1901,123.4706,236.6451,0.00021591,3.15e-05,0.0,0 STARLINK-4468,1 53969U 22125F   24081.72336499  .00003150  00000-0  21591-3 0  9992,2 53969  53.2165 207.1901 0001723 123.4706 236.6451 15.08847216 80931,6917.858,95.437,540.915,538.531,0.0
53969.0,STARLINK-4468,PAYLOAD,2024-03-22 14:01:39,15.08851967,0.0001781,53.2166,203.3243,83.6439,276.4756,0.00030308,4.54e-05,0.0,0 STARLINK-4468,1 53969U 22125F   24082.58448337  .00004540  00000-0  30308-3 0  9992,2 53969  53.2166 203.3243 0001781  83.6439 276.4756 15.08851967 81066,6917.844,95.437,540.941,538.477,0.0
53969.0,STARLINK-4468,PAYLOAD,2024-03-22 17:12:24,15.0886994,0.0001401,53.2163,202.7273,95.8744,264.2408,0.00062801,9.729e-05,0.0,0 STARLINK-4468,1 53969U 22125F   24082.71695570  .00009729  00000-0  62801-3 0  9997,2 53969  53.2163 202.7273 0001401  95.8744 264.2408 15.08869940 81151,6917.789,95.436,540.623,538.685,0.0
53969.0,STARLINK-4468,PAYLOAD,2024-03-23 12:17:03,15.08839454,0.0001998,53.2178,199.1592,115.8679,244.2519,-8.6673e-05,-1.667e-05,0.0,0 STARLINK-4468,1 53969U 22125F   24083.51184720 -.00001667  00000-0 -86673-4 0  9995,2 53969  53.2178 199.1592 0001998 115.8679 244.2519 15.08839454 81272,6917.882,95.438,541.129,538.365,0.0
53969.0,STARLINK-4468,PAYLOAD,2024-03-23 15:27:50,15.08835597,0.0001734,53.2166,198.5688,83.6551,276.4638,-0.00012069,-2.208e-05,0.0,0 STARLINK-4468,1 53969U 22125F   24083.64433021 -.00002208  00000-0 -12069-3 0  9999,2 53969  53.2166 198.5688 0001734  83.6551 276.4638 15.08835597 81225,6917.894,95.438,540.958,538.559,0.0
53969.0,STARLINK-4468,PAYLOAD,2024-03-24 12:07:50,15.08866051,0.000184,53.2175,194.7054,79.3212,280.7988,0.00077941,0.00012147,0.0,0 STARLINK-4468,1 53969U 22125F   24084.50544404  .00012147  00000-0  77941-3 0  9994,2 53969  53.2175 194.7054 0001840  79.3212 280.7988 15.08866051 81421,6917.801,95.436,540.939,538.393,0.0
53969.0,STARLINK-4468,PAYLOAD,2024-03-24 13:43:13,15.08872794,0.0001897,53.2169,194.4075,79.7731,280.3475,0.0013538,0.00021343,0.0,0 STARLINK-4468,1 53969U 22125F   24084.57168508  .00021343  00000-0  13538-2 0  9997,2 53969  53.2169 194.4075 0001897  79.7731 280.3475 15.08872794 81367,6917.78,95.435,540.957,538.333,0.0
53969.0,STARLINK-4468,PAYLOAD,2024-03-25 00:50:55,15.08865761,0.0001845,53.2174,192.3221,100.4969,259.6232,0.0012087,0.00019014,0.0,0 STARLINK-4468,1 53969U 22125F   24085.03536594  .00019014  00000-0  12087-2 0  9993,2 53969  53.2174 192.3221 0001845 100.4969 259.6232 15.08865761 81503,6917.802,95.436,540.943,538.39,0.0
53969.0,STARLINK-4468,PAYLOAD,2024-03-25 13:34:00,15.088433,0.0001309,53.2182,189.9451,113.5795,246.5335,0.00018783,2.703e-05,0.0,0 STARLINK-4468,1 53969U 22125F   24085.56528778  .00002703  00000-0  18783-3 0  9993,2 53969  53.2182 189.9451 0001309 113.5795 246.5335 15.08843300 81588,6917.87,95.437,540.641,538.83,0.0
53969.0,STARLINK-4468,PAYLOAD,2024-03-26 13:24:49,15.08814131,8.73e-05,53.2163,185.4815,116.1987,243.9095,-9.3083e-05,-1.768e-05,0.0,0 STARLINK-4468,1 53969U 22125F   24086.55890901 -.00001768  00000-0 -93083-4 0  9992,2 53969  53.2163 185.4815 0000873 116.1987 243.9095 15.08814131 81730,6917.959,95.439,540.428,539.221,0.0
53969.0,STARLINK-4468,PAYLOAD,2024-03-26 22:57:08,15.08825492,0.0001025,53.2175,183.6984,118.8892,241.2203,0.00039732,6.039e-05,0.0,0 STARLINK-4468,1 53969U 22125F   24086.95635377  .00006039  00000-0  39732-3 0  9994,2 53969  53.2175 183.6984 0001025 118.8892 241.2203 15.08825492 81794,6917.925,95.438,540.499,539.081,0.0
53969.0,STARLINK-4468,PAYLOAD,2024-03-27 13:15:36,15.08862468,7.44e-05,53.2158,181.0235,119.4192,240.6875,0.001248,0.00019642,0.0,0 STARLINK-4468,1 53969U 22125F   24087.55250530  .00019642  00000-0  12480-2 0  9999,2 53969  53.2158 181.0235 0000744 119.4192 240.6875 15.08862468 81885,6917.812,95.436,540.191,539.162,0.0
